NORAD_CAT_ID,OBJECT_NAME,OBJECT_TYPE,EPOCH,MEAN_MOTION,ECCENTRICITY,INCLINATION,RA_OF_ASC_NODE,ARG_OF_PERICENTER,MEAN_ANOMALY,BSTAR,MEAN_MOTION_DOT,MEAN_MOTION_DDOT,TLE_LINE0,TLE_LINE1,TLE_LINE2,SEMIMAJOR_AXIS,PERIOD,APOGEE,PERIGEE,DECAYED
53006.0,STARLINK-4290,PAYLOAD,2022-09-30 06:00:02,15.08841704,0.0001416,53.216,334.4824,50.2032,82.4883,-0.00018174,-3.179e-05,0.0,0 STARLINK-4290,1 53006U 22076W   22273.25002315 -.00003179  00000-0 -18174-3 0  9991,2 53006  53.2160 334.4824 0001416  50.2032  82.4883 15.08841704 13640,6917.875,95.437,540.72,538.761,0.0
53006.0,STARLINK-4290,PAYLOAD,2022-09-30 14:00:01,15.08822002,0.0001609,53.2159,332.9875,42.3647,101.8683,0.0036398,0.00058089,0.0,0 STARLINK-4290,1 53006U 22076W   22273.58334491  .00058089  00000-0  36398-2 0  9995,2 53006  53.2159 332.9875 0001609  42.3647 101.8683 15.08822002  1309,6917.935,95.439,540.913,538.687,0.0
53006.0,STARLINK-4290,PAYLOAD,2022-09-30 22:00:00,15.08869148,0.0001520999999999,53.2158,331.4894,47.2587,108.577,-0.0019140999999999,-0.00030646,0.0,0 STARLINK-4290,1 53006U 22076W   22273.91667824 -.00030646  00000-0 -19141-2 0  9999,2 53006  53.2158 331.4894 0001521  47.2587 108.5770 15.08869148  1306,6917.791,95.436,540.7080000000002,538.604,0.0
53006.0,STARLINK-4290,PAYLOAD,2022-10-01 06:00:00,15.088567499999998,0.0001619,53.2159,329.9929,51.8731,115.5716,-0.00014872,-2.655e-05,0.0,0 STARLINK-4290,1 53006U 22076W   22274.25001157 -.00002655  00000-0 -14872-3 0  9994,2 53006  53.2159 329.9929 0001619  51.8731 115.5716 15.08856750 13797,6917.829000000002,95.436,540.814,538.5740000000002,0.0
53006.0,STARLINK-4290,PAYLOAD,2022-10-01 14:00:01,15.08842344,0.0001745,53.2159,328.4980000000001,43.4057,135.6549,0.0014907,0.00023518,0.0,0 STARLINK-4290,1 53006U 22076W   22274.58334491  .00023518  00000-0  14907-2 0  9997,2 53006  53.2159 328.4980 0001745  43.4057 135.6549 15.08842344  1301,6917.873000000001,95.437,540.945,538.531,0.0
53006.0,STARLINK-4290,PAYLOAD,2022-10-01 22:00:00,15.08845125,0.0001496999999999,53.216,326.9997,43.255,147.4223,-0.0033345999999999,-0.00052975,0.0,0 STARLINK-4290,1 53006U 22076W   22274.91667824 -.00052975  00000-0 -33346-2 0  9992,2 53006  53.2160 326.9997 0001497  43.2550 147.4223 15.08845125  1304,6917.865,95.437,540.765,538.694,0.0
53006.0,STARLINK-4290,PAYLOAD,2022-10-02 06:00:00,15.08823676,0.000151,53.2162,325.5036,43.749,158.5009,-0.00041348,-6.86e-05,0.0,0 STARLINK-4290,1 53006U 22076W   22275.25001157 -.00006860  00000-0 -41348-3 0  9995,2 53006  53.2162 325.5036 0001510  43.7490 158.5009 15.08823676 13944,6917.93,95.439,540.84,538.751,0.0
53006.0,STARLINK-4290,PAYLOAD,2022-10-02 14:00:01,15.08798801,0.000171,53.2163,324.0085,37.4596,176.3698,0.0039756999999999,0.00063484,0.0,0 STARLINK-4290,1 53006U 22076W   22275.58334491  .00063484  00000-0  39757-2 0  9994,2 53006  53.2163 324.0085 0001710  37.4596 176.3698 15.08798801  1302,6918.005999999999,95.44,541.054,538.688,0.0
53006.0,STARLINK-4290,PAYLOAD,2022-10-02 22:00:00,15.08829196,0.0001548,53.2165,322.5103,41.272,184.1383,0.0019526,0.00030915,0.0,0 STARLINK-4290,1 53006U 22076W   22275.91667824  .00030915  00000-0  19526-2 0  9995,2 53006  53.2165 322.5103 0001548  41.2720 184.1383 15.08829196 14044,6917.913000000001,95.438,540.849,538.7080000000002,0.0
53006.0,STARLINK-4290,PAYLOAD,2022-10-03 14:00:01,15.08841328,0.0001889,53.2166,319.5192,41.1728,207.4637,0.0021101999999999,0.00033457,0.0,0 STARLINK-4290,1 53006U 22076W   22276.58334491  .00033457  00000-0  21102-2 0  9997,2 53006  53.2166 319.5192 0001889  41.1728 207.4637 15.08841328  1301,6917.876,95.437,541.048,538.435,0.0
53006.0,STARLINK-4290,PAYLOAD,2022-10-03 22:00:00,15.0883229,0.0001771,53.2169,318.021,47.5682,212.6871,0.0012671,0.00019931,0.0,0 STARLINK-4290,1 53006U 22076W   22276.91667824  .00019931  00000-0  12671-2 0  9995,2 53006  53.2169 318.0210 0001771  47.5682 212.6871 15.08832290 14195,6917.904,95.438,540.994,538.544,0.0
53006.0,STARLINK-4290,PAYLOAD,2022-10-04 14:00:01,15.08834492,0.0001864,53.2166,315.03,41.3814,242.0864,0.00020362,2.954e-05,0.0,0 STARLINK-4290,1 53006U 22076W   22277.58334491  .00002954  00000-0  20362-3 0  9994,2 53006  53.2166 315.0300 0001864  41.3814 242.0864 15.08834492  1305,6917.897,95.438,541.052,538.4730000000002,0.0
53006.0,STARLINK-4290,PAYLOAD,2022-10-04 22:00:00,15.08807859,0.0001654,53.2168,313.532,45.3618,249.7043,0.0029695,0.00047247,0.0,0 STARLINK-4290,1 53006U 22076W   22277.91667824  .00047247  00000-0  29695-2 0  9991,2 53006  53.2168 313.5320 0001654  45.3618 249.7043 15.08807859 14343,6917.979,95.44,540.988,538.6990000000002,0.0
53006.0,STARLINK-4290,PAYLOAD,2022-10-05 14:00:01,15.08816902,0.0001875999999999,53.2162,310.541,42.8188,275.4648,0.0014404,0.00022696,0.0,0 STARLINK-4290,1 53006U 22076W   22278.58335648  .00022696  00000-0  14404-2 0  9994,2 53006  53.2162 310.5410 0001876  42.8188 275.4648 15.08816902  1302,6917.951,95.439,541.114,538.518,0.0
53006.0,STARLINK-4290,PAYLOAD,2022-10-05 22:00:00,15.08795141,0.0001655,53.2162,309.043,47.9218,281.8887,0.0026651,0.0004233,0.0,0 STARLINK-4290,1 53006U 22076W   22278.91667824  .00042330  00000-0  26651-2 0  9999,2 53006  53.2162 309.0430 0001655  47.9218 281.8887 15.08795141  1309,6918.018,95.44,541.0269999999998,538.738,0.0
53006.0,STARLINK-4290,PAYLOAD,2022-10-06 06:00:00,15.08839215,0.0001727,53.2161,307.5477,47.2204,294.1458,-0.00069365,-0.0001131,0.0,0 STARLINK-4290,1 53006U 22076W   22279.25001157 -.00011310  00000-0 -69365-3 0  9994,2 53006  53.2161 307.5477 0001727  47.2204 294.1458 15.08839215 14542,6917.8830000000025,95.438,540.943,538.553,0.0
53006.0,STARLINK-4290,PAYLOAD,2022-10-06 14:00:01,15.08837579,0.0001803,53.2154,306.052,41.9542,311.0005,0.00096354,0.00015079,0.0,0 STARLINK-4290,1 53006U 22076W   22279.58334491  .00015079  00000-0  96354-3 0  9992,2 53006  53.2154 306.0520 0001803  41.9542 311.0005 15.08837579  1306,6917.888000000001,95.438,541.0,538.505,0.0
53006.0,STARLINK-4290,PAYLOAD,2022-10-06 22:42:55,15.08807948,0.0001587,53.2152,304.4202,47.2415,119.2351,0.003509,0.00055952,0.0,0 STARLINK-4290,1 53006U 22076W   22279.94646991  .00055952  00000-0  35090-2 0  9996,2 53006  53.2152 304.4202 0001587  47.2415 119.2351 15.08807948  1309,6917.978,95.44,540.941,538.745,0.0
53006.0,STARLINK-4290,PAYLOAD,2022-10-07 06:00:00,15.08866777,0.0001671,53.2153,303.0587,45.7305,330.4111,-0.0024839,-0.00039631,0.0,0 STARLINK-4290,1 53006U 22076W   22280.25001157 -.00039631  00000-0 -24839-2 0  9998,2 53006  53.2153 303.0587 0001671  45.7305 330.4111 15.08866777 14698,6917.799,95.436,540.82,538.508,0.0
53006.0,STARLINK-4290,PAYLOAD,2022-10-07 14:00:01,15.0882799,0.0001747,53.2147,301.5627,40.2548,347.5,0.0015134999999999,0.00023874,0.0,0 STARLINK-4290,1 53006U 22076W   22280.58334491  .00023874  00000-0  15135-2 0  9993,2 53006  53.2147 301.5627 0001747  40.2548 347.5000 15.08827990  1306,6917.917,95.438,540.991,538.5740000000002,0.0
53006.0,STARLINK-4290,PAYLOAD,2022-10-07 22:00:00,15.08813309,0.0001616,53.2146,300.0645,48.3181,351.0378,0.0018201,0.00028777,0.0,0 STARLINK-4290,1 53006U 22076W   22280.91667824  .00028777  00000-0  18201-2 0  9993,2 53006  53.2146 300.0645 0001616  48.3181 351.0378 15.08813309 14790,6917.962,95.439,540.945,538.7090000000002,0.0
53006.0,STARLINK-4290,PAYLOAD,2022-10-08 14:00:01,15.08826642,0.0001827,53.2145,297.0731,42.0232,20.4953,0.00038303,5.811e-05,0.0,0 STARLINK-4290,1 53006U 22076W   22281.58334491  .00005811  00000-0  38303-3 0  9998,2 53006  53.2145 297.0731 0001827  42.0232  20.4953 15.08826642 14893,6917.920999999999,95.438,541.05,538.5219999999998,0.0
53006.0,STARLINK-4290,PAYLOAD,2022-10-08 22:00:00,15.08805856,0.0001803,53.2169,295.5823,40.9115,33.1858,0.0029668,0.00047201,0.0,0 STARLINK-4290,1 53006U 22076W   22281.91667824  .00047201  00000-0  29668-2 0  9996,2 53006  53.2169 295.5823 0001803  40.9115  33.1858 15.08805856  1306,6917.985,95.44,541.097,538.602,0.0
53006.0,STARLINK-4290,PAYLOAD,2022-10-09 14:00:01,15.08832341,0.0001814,53.2163,292.5834,40.4005,56.8826,0.0015281,0.0002411,0.0,0 STARLINK-4290,1 53006U 22076W   22282.58334491  .00024110  00000-0  15281-2 0  9991,2 53006  53.2163 292.5834 0001814  40.4005  56.8826 15.08832341  1300,6917.904,95.438,541.024,538.514,0.0
53006.0,STARLINK-4290,PAYLOAD,2022-10-09 22:00:00,15.08841429,0.000171,53.2166,291.0853,48.0813,60.8024,0.00029669,4.437e-05,0.0,0 STARLINK-4290,1 53006U 22076W   22282.91667824  .00004437  00000-0  29669-3 0  9993,2 53006  53.2166 291.0853 0001710  48.0813  60.8024 15.08841429 15109,6917.876,95.437,540.924,538.558,0.0
53006.0,STARLINK-4290,PAYLOAD,2022-10-10 14:00:01,15.08865184,0.0001972,53.217,288.099,43.0305,89.0435,-0.0058407,-0.00092122,0.0,0 STARLINK-4290,1 53006U 22076W   22283.58334491 -.00092122  00000-0 -58407-2 0  9999,2 53006  53.2170 288.0990 0001972  43.0305  89.0435 15.08865184  1303,6917.803000000001,95.436,541.033,538.304,0.0
53006.0,STARLINK-4290,PAYLOAD,2022-10-10 22:00:01,15.08888187,0.0001691,53.2172,286.6002,47.9033,95.8473,-0.010974,-0.00171049,0.0,0 STARLINK-4290,1 53006U 22076W   22283.91668981 -.00171049  00000-0 -10974-1 0  9992,2 53006  53.2172 286.6002 0001691  47.9033  95.8473 15.08888187  1307,6917.733,95.435,540.768,538.428,0.0
53006.0,STARLINK-4290,PAYLOAD,2022-10-11 06:00:00,15.08817766,0.0001773,53.2175,285.1026,42.9432,112.3303,-0.0011942,-0.00019232,0.0,0 STARLINK-4290,1 53006U 22076W   22284.25001157 -.00019232  00000-0 -11942-2 0  9998,2 53006  53.2175 285.1026 0001773  42.9432 112.3303 15.08817766 15306,6917.948,95.439,541.04,538.587,0.0
53006.0,STARLINK-4290,PAYLOAD,2022-10-11 14:00:01,15.08811476,0.0001929,53.2172,283.6096,42.0551,124.774,0.0027126,0.00043114,0.0,0 STARLINK-4290,1 53006U 22076W   22284.58334491  .00043114  00000-0  27126-2 0  9999,2 53006  53.2172 283.6096 0001929  42.0551 124.7740 15.08811476  1308,6917.968000000003,95.439,541.1669999999998,538.498,0.0
